start=new Date('2023-05-26T00:00:00.000Z').valueOf();
sats=[{"SEMIMAJOR_AXIS":"6917.862","OBJECT_ID":"2022-022AS","NORAD_CAT_ID":"51892","DECAY_DATE":null,"CENTER_NAME":"EARTH","FILE":"3916775","OBJECT_TYPE":"PAYLOAD","RCS_SIZE":"LARGE","TLE_LINE1":"1 51892U 22022AS  23145.58174531  .00001945  00000-0  14023-3 0  9994","BSTAR":"0.00014023000000","TIME_SYSTEM":"UTC","ECCENTRICITY":"0.00010460","MEAN_MOTION":"15.08845868","EPHEMERIS_TYPE":"0","REF_FRAME":"TEME","EPOCH":"2023-05-25T13:57:42.794784","LAUNCH_DATE":"2022-03-03","OBJECT_NAME":"STARLINK-3587","COUNTRY_CODE":"US","RA_OF_ASC_NODE":"254.0746","TLE_LINE2":"2 51892  53.2168 254.0746 0001046  78.5720 281.5390 15.08845868 69398","MEAN_ANOMALY":"281.5390","ELEMENT_SET_NO":"999","PERIOD":"95.437","APOAPSIS":"540.451","MEAN_MOTION_DOT":"0.00001945","MEAN_ELEMENT_THEORY":"SGP4","MEAN_MOTION_DDOT":"0.0000000000000","PERIAPSIS":"539.004","REV_AT_EPOCH":"6939","SITE":"AFETR","ARG_OF_PERICENTER":"78.5720","INCLINATION":"53.2168","CLASSIFICATION_TYPE":"U","GP_ID":"232481680"},{"NORAD_CAT_ID":"51893","CENTER_NAME":"EARTH","DECAY_DATE":null,"FILE":"3916549","SEMIMAJOR_AXIS":"6917.902","OBJECT_ID":"2022-022AT","RCS_SIZE":"LARGE","OBJECT_TYPE":"PAYLOAD","REF_FRAME":"TEME","EPHEMERIS_TYPE":"0","TLE_LINE1":"1 51893U 22022AT  23144.63967218 -.00000236  00000-0  32533-5 0  9993","BSTAR":"0.00000325330000","TIME_SYSTEM":"UTC","ECCENTRICITY":"0.00010360","MEAN_MOTION":"15.08832904","LAUNCH_DATE":"2022-03-03","EPOCH":"2023-05-24T15:21:07.676352","ELEMENT_SET_NO":"999","PERIOD":"95.438","OBJECT_NAME":"STARLINK-3579","COUNTRY_CODE":"US","RA_OF_ASC_NODE":"258.3050","MEAN_ANOMALY":"305.0120","TLE_LINE2":"2 51893  53.2179 258.3050 0001036  55.0969 305.0120 15.08832904 69312","MEAN_MOTION_DOT":"-0.00000236","MEAN_ELEMENT_THEORY":"SGP4","MEAN_MOTION_DDOT":"0.0000000000000","PERIAPSIS":"539.050","APOAPSIS":"540.484","REV_AT_EPOCH":"6931","SITE":"AFETR","ARG_OF_PERICENTER":"55.0969","GP_ID":"232451356","INCLINATION":"53.2179","CLASSIFICATION_TYPE":"U"},{"SITE":"AFETR","REV_AT_EPOCH":"6945","ARG_OF_PERICENTER":"76.2508","CLASSIFICATION_TYPE":"U","INCLINATION":"53.2174","GP_ID":"232480687","RA_OF_ASC_NODE":"254.1252","OBJECT_NAME":"STARLINK-3595","COUNTRY_CODE":"US","MEAN_ANOMALY":"283.8623","TLE_LINE2":"2 51894  53.2174 254.1252 0001245  76.2508 283.8623 15.08849104 69458","ELEMENT_SET_NO":"999","PERIOD":"95.437","APOAPSIS":"540.579","MEAN_ELEMENT_THEORY":"SGP4","MEAN_MOTION_DOT":"-0.00000354","PERIAPSIS":"538.856","MEAN_MOTION_DDOT":"0.0000000000000","TIME_SYSTEM":"UTC","BSTAR":"-0.00000415310000","TLE_LINE1":"1 51894U 22022AU  23145.57070498 -.00000354  00000-0 -41531-5 0  9993","MEAN_MOTION":"15.08849104","ECCENTRICITY":"0.00012450","REF_FRAME":"TEME","EPHEMERIS_TYPE":"0","EPOCH":"2023-05-25T13:41:48.910272","LAUNCH_DATE":"2022-03-03","OBJECT_ID":"2022-022AU","SEMIMAJOR_AXIS":"6917.853","DECAY_DATE":null,"CENTER_NAME":"EARTH","NORAD_CAT_ID":"51894","FILE":"3916775","OBJECT_TYPE":"PAYLOAD","RCS_SIZE":"LARGE"},{"RCS_SIZE":"LARGE","OBJECT_TYPE":"PAYLOAD","DECAY_DATE":null,"CENTER_NAME":"EARTH","NORAD_CAT_ID":"51895","FILE":"3916549","SEMIMAJOR_AXIS":"6917.881","OBJECT_ID":"2022-022AV","LAUNCH_DATE":"2022-03-03","EPOCH":"2023-05-24T15:15:49.538592","EPHEMERIS_TYPE":"0","REF_FRAME":"TEME","TIME_SYSTEM":"UTC","BSTAR":"0.00008102800000","TLE_LINE1":"1 51895U 22022AV  23144.63599003  .00001002  00000-0  81028-4 0  9991","ECCENTRICITY":"0.00009940","MEAN_MOTION":"15.08839946","MEAN_ELEMENT_THEORY":"SGP4","MEAN_MOTION_DOT":"0.00001002","PERIAPSIS":"539.058","MEAN_MOTION_DDOT":"0.0000000000000","APOAPSIS":"540.433","ELEMENT_SET_NO":"999","PERIOD":"95.438","RA_OF_ASC_NODE":"258.3196","COUNTRY_CODE":"US","OBJECT_NAME":"STARLINK-3594","MEAN_ANOMALY":"274.7632","TLE_LINE2":"2 51895  53.2176 258.3196 0000994  85.3474 274.7632 15.08839946 69257","GP_ID":"232449859","CLASSIFICATION_TYPE":"U","INCLINATION":"53.2176","REV_AT_EPOCH":"6925","SITE":"AFETR","ARG_OF_PERICENTER":"85.3474"},{"MEAN_MOTION_DOT":"0.00001428","MEAN_ELEMENT_THEORY":"SGP4","MEAN_MOTION_DDOT":"0.0000000000000","PERIAPSIS":"538.826","APOAPSIS":"540.608","ELEMENT_SET_NO":"999","PERIOD":"95.437","COUNTRY_CODE":"US","OBJECT_NAME":"STARLINK-3593","RA_OF_ASC_NODE":"258.3152","MEAN_ANOMALY":"239.2272","TLE_LINE2":"2 51896  53.2178 258.3152 0001288 120.8847 239.2272 15.08849309 69304","GP_ID":"232450605","INCLINATION":"53.2178","CLASSIFICATION_TYPE":"U","SITE":"AFETR","REV_AT_EPOCH":"6930","ARG_OF_PERICENTER":"120.8847","RCS_SIZE":"LARGE","OBJECT_TYPE":"PAYLOAD","NORAD_CAT_ID":"51896","DECAY_DATE":null,"CENTER_NAME":"EARTH","FILE":"3916549","SEMIMAJOR_AXIS":"6917.852","OBJECT_ID":"2022-022AW","LAUNCH_DATE":"2022-03-03","EPOCH":"2023-05-24T15:17:11.421600","EPHEMERIS_TYPE":"0","REF_FRAME":"TEME","BSTAR":"0.00010774000000","TLE_LINE1":"1 51896U 22022AW  23144.63693775  .00001428  00000-0  10774-3 0  9994","TIME_SYSTEM":"UTC","ECCENTRICITY":"0.00012880","MEAN_MOTION":"15.08849309"},{"NORAD_CAT_ID":"51897","DECAY_DATE":null,"CENTER_NAME":"EARTH","FILE":"3917122","SEMIMAJOR_AXIS":"6917.869","OBJECT_ID":"2022-022AX","RCS_SIZE":"LARGE","OBJECT_TYPE":"PAYLOAD","REF_FRAME":"TEME","EPHEMERIS_TYPE":"0","BSTAR":"0.00009437600000","TLE_LINE1":"1 51897U 22022AX  23145.62590606  .00001215  00000-0  94376-4 0  9999","TIME_SYSTEM":"UTC","ECCENTRICITY":"0.00010740","MEAN_MOTION":"15.08843814","LAUNCH_DATE":"2022-03-03","EPOCH":"2023-05-25T15:01:18.283584","ELEMENT_SET_NO":"999","PERIOD":"95.437","OBJECT_NAME":"STARLINK-3598","COUNTRY_CODE":"US","RA_OF_ASC_NODE":"253.8752","TLE_LINE2":"2 51897  53.2177 253.8752 0001074  86.4491 273.6624 15.08843814 69404","MEAN_ANOMALY":"273.6624","MEAN_MOTION_DOT":"0.00001215","MEAN_ELEMENT_THEORY":"SGP4","MEAN_MOTION_DDOT":"0.0000000000000","PERIAPSIS":"538.991","APOAPSIS":"540.477","REV_AT_EPOCH":"6940","SITE":"AFETR","ARG_OF_PERICENTER":"86.4491","GP_ID":"232517551","INCLINATION":"53.2177","CLASSIFICATION_TYPE":"U"},{"APOAPSIS":"540.439","MEAN_MOTION_DDOT":"0.0000000000000","PERIAPSIS":"539.015","MEAN_MOTION_DOT":"0.00001983","MEAN_ELEMENT_THEORY":"SGP4","MEAN_ANOMALY":"275.6224","TLE_LINE2":"2 51898  53.2176 253.5915 0001029  84.4886 275.6224 15.08846012 69465","OBJECT_NAME":"STARLINK-3597","COUNTRY_CODE":"US","RA_OF_ASC_NODE":"253.5915","PERIOD":"95.437","ELEMENT_SET_NO":"999","INCLINATION":"53.2176","CLASSIFICATION_TYPE":"U","GP_ID":"232516299","ARG_OF_PERICENTER":"84.4886","SITE":"AFETR","REV_AT_EPOCH":"6946","OBJECT_TYPE":"PAYLOAD","RCS_SIZE":"LARGE","SEMIMAJOR_AXIS":"6917.862","OBJECT_ID":"2022-022AY","FILE":"3917122","NORAD_CAT_ID":"51898","DECAY_DATE":null,"CENTER_NAME":"EARTH","EPOCH":"2023-05-25T16:31:23.160864","LAUNCH_DATE":"2022-03-03","ECCENTRICITY":"0.00010290","MEAN_MOTION":"15.08846012","TLE_LINE1":"1 51898U 22022AY  23145.68846251  .00001983  00000-0  14260-3 0  9991","BSTAR":"0.00014260000000","TIME_SYSTEM":"UTC","EPHEMERIS_TYPE":"0","REF_FRAME":"TEME"},{"EPHEMERIS_TYPE":"0","REF_FRAME":"TEME","ECCENTRICITY":"0.00010580","MEAN_MOTION":"15.08038162","TLE_LINE1":"1 51956U 22025A   23145.75493681 -.00000535  00000-0 -16012-4 0  9994","BSTAR":"-0.00001601200000","TIME_SYSTEM":"UTC","LAUNCH_DATE":"2022-03-09","EPOCH":"2023-05-25T18:07:06.540384","FILE":"3917122","NORAD_CAT_ID":"51956","DECAY_DATE":null,"CENTER_NAME":"EARTH","SEMIMAJOR_AXIS":"6920.332","OBJECT_ID":"2022-025A","RCS_SIZE":"LARGE","OBJECT_TYPE":"PAYLOAD","ARG_OF_PERICENTER":"91.6069","REV_AT_EPOCH":"6736","SITE":"AFETR","GP_ID":"232515800","INCLINATION":"53.0948","CLASSIFICATION_TYPE":"U","PERIOD":"95.488","ELEMENT_SET_NO":"999","TLE_LINE2":"2 51956  53.0948 283.2547 0001058  91.6069 268.5043 15.08038162 67367","MEAN_ANOMALY":"268.5043","OBJECT_NAME":"STARLINK-3700","COUNTRY_CODE":"US","RA_OF_ASC_NODE":"283.2547","MEAN_MOTION_DDOT":"0.0000000000000","PERIAPSIS":"541.465","MEAN_MOTION_DOT":"-0.00000535","MEAN_ELEMENT_THEORY":"SGP4","APOAPSIS":"542.930"},{"APOAPSIS":"552.906","MEAN_MOTION_DOT":"0.00001720","MEAN_ELEMENT_THEORY":"SGP4","MEAN_MOTION_DDOT":"0.0000000000000","PERIAPSIS":"551.499","OBJECT_NAME":"STARLINK-3694","COUNTRY_CODE":"US","RA_OF_ASC_NODE":"285.3042","TLE_LINE2":"2 51957  53.1003 285.3042 0001015  92.4417 267.6688 15.04773647 67335","MEAN_ANOMALY":"267.6688","ELEMENT_SET_NO":"999","PERIOD":"95.695","INCLINATION":"53.1003","CLASSIFICATION_TYPE":"U","GP_ID":"232516050","SITE":"AFETR","REV_AT_EPOCH":"6733","ARG_OF_PERICENTER":"92.4417","OBJECT_TYPE":"PAYLOAD","RCS_SIZE":"LARGE","SEMIMAJOR_AXIS":"6930.338","OBJECT_ID":"2022-025B","NORAD_CAT_ID":"51957","DECAY_DATE":null,"CENTER_NAME":"EARTH","FILE":"3917122","EPOCH":"2023-05-25T17:05:13.706880","LAUNCH_DATE":"2022-03-09","TLE_LINE1":"1 51957U 22025B   23145.71196420  .00001720  00000-0  14003-3 0  9994","BSTAR":"0.00014003000000","TIME_SYSTEM":"UTC","ECCENTRICITY":"0.00010150","MEAN_MOTION":"15.04773647","REF_FRAME":"TEME","EPHEMERIS_TYPE":"0"},{"SEMIMAJOR_AXIS":"6920.347","OBJECT_ID":"2022-025C","NORAD_CAT_ID":"51958","DECAY_DATE":null,"CENTER_NAME":"EARTH","FILE":"3917122","OBJECT_TYPE":"PAYLOAD","RCS_SIZE":"LARGE","BSTAR":"0.00010511000000","TLE_LINE1":"1 51958U 22025C   23145.75112053  .00001351  00000-0  10511-3 0  9999","TIME_SYSTEM":"UTC","ECCENTRICITY":"0.00009900","MEAN_MOTION":"15.08033357","EPHEMERIS_TYPE":"0","REF_FRAME":"TEME","EPOCH":"2023-05-25T18:01:36.813792","LAUNCH_DATE":"2022-03-09","COUNTRY_CODE":"US","OBJECT_NAME":"STARLINK-3692","RA_OF_ASC_NODE":"283.2706","TLE_LINE2":"2 51958  53.0963 283.2706 0000990  93.0862 267.0242 15.08033357 67360","MEAN_ANOMALY":"267.0242","ELEMENT_SET_NO":"999","PERIOD":"95.489","APOAPSIS":"542.897","MEAN_MOTION_DOT":"0.00001351","MEAN_ELEMENT_THEORY":"SGP4","MEAN_MOTION_DDOT":"0.0000000000000","PERIAPSIS":"541.527","SITE":"AFETR","REV_AT_EPOCH":"6736","ARG_OF_PERICENTER":"93.0862","INCLINATION":"53.0963","CLASSIFICATION_TYPE":"U","GP_ID":"232516802"}];
